ONEWEB-0113             
1 48050U 21025J   22265.16058175 -.00000269  00000+0 -77171-3 0  9991
2 48050  87.8983 231.2222 0002032  77.8238 282.3119 13.13467050 74522
ONEWEB-0112             
1 48051U 21025K   22265.83347072  .00000144  00000+0  36063-3 0  9998
2 48051  87.9092 231.0171 0001954  80.7549 279.3801 13.13468206 74636
ONEWEB-0156             
1 48052U 21025L   22265.84406005 -.00000083  00000+0 -26288-3 0  9994
2 48052  87.8989 231.0689 0001979  82.2814 277.8539 13.13467180 74613
ONEWEB-0161             
1 48053U 21025M   22265.81654781  .00000492  00000+0  13119-2 0  9998
2 48053  87.9000 231.0559 0001656  80.3649 279.7667 13.13468964 74548
ONEWEB-0158             
1 48054U 21025N   22265.85674824 -.00000297  00000+0 -84713-3 0  9997
2 48054  87.8987 231.0733 0002198  72.7921 287.3449 13.13470781 74662
ONEWEB-0157             
1 48055U 21025P   22265.65148891  .00000171  00000+0  43272-3 0  9990
2 48055  87.9010 231.0522 0001807  91.9214 268.2122 13.13472090 74583
ONEWEB-0162             
1 48056U 21025Q   22265.84194874  .00000149  00000+0  37181-3 0  9991
2 48056  87.9090 231.0302 0001990  82.6865 277.4490 13.13468475 74559
ONEWEB-0155             
1 48057U 21025R   22264.33953511  .00000023  00000+0  27403-4 0  9994
2 48057  87.9064 231.2688 0001914  81.6030 278.5316 13.13472779 74516
ONEWEB-0149             
1 48058U 21025S   22265.19865882  .00000254  00000+0  66077-3 0  9998
2 48058  87.9031 231.1672 0002275  91.0246 269.1143 13.13471418 74443
ONEWEB-0148             
1 48059U 21025T   22265.84828430 -.00000162  00000+0 -47726-3 0  9999
2 48059  87.9067 231.0390 0002335 104.6406 255.4982 13.13471622 74643
ONEWEB-0160             
1 48060U 21025U   22264.34165093  .00000023  00000+0  28439-4 0  9999
2 48060  87.9064 231.3349 0002870  63.8930 296.2494 13.13466692 74395
ONEWEB-0163             
1 48061U 21025V   22265.85040542 -.00000121  00000+0 -36564-3 0  9996
2 48061  87.8921 231.1154 0001543  94.0632 266.0673 13.13470926 74726
ONEWEB-0159             
1 48062U 21025W   22265.83982008  .00000047  00000+0  94808-4 0  9998
2 48062  87.8991 231.0563 0001787  97.5264 262.6068 13.13471155 74631
ONEWEB-0164             
1 48063U 21025X   22265.21135351  .00000142  00000+0  35321-3 0  9992
2 48063  87.8874 231.2649 0001694  71.2910 288.8403 13.13468886 74543
ONEWEB-0167             
1 48064U 21025Y   22265.85251521 -.00000297  00000+0 -84940-3 0  9995
2 48064  87.9003 231.0138 0001826  91.0432 269.0906 13.13467632 74600
ONEWEB-0166             
1 48065U 21025Z   22265.18807291  .00000081  00000+0  18659-3 0  9996
2 48065  87.9082 231.1420 0001932  90.6045 269.5306 13.13472310 74592
ONEWEB-0151             
1 48066U 21025AA  22265.79962033  .00000016  00000+0  88018-5 0  9996
2 48066  87.9025 231.0522 0001741  72.4280 287.7039 13.13471130 74627
ONEWEB-0170             
1 48067U 21025AB  22265.80596373  .00000198  00000+0  50619-3 0  9994
2 48067  87.8932 231.1353 0002040  51.5669 308.5643 13.13479045 74579
ONEWEB-0168             
1 48068U 21025AC  22264.64847121 -.00000108  00000+0 -33103-3 0  9998
2 48068  87.8985 231.3173 0001917  85.5777 274.5571 13.13472870 74435
ONEWEB-0173             
1 48069U 21025AD  22265.86097839 -.00000174  00000+0 -51093-3 0  9998
2 48069  87.8998 231.0874 0001265  84.1573 275.9700 13.13470967 74838
ONEWEB-0171             
1 48070U 21025AE  22265.81866169  .00000299  00000+0  78309-3 0  9990
2 48070  87.9086 231.0475 0001896  89.6922 270.4425 13.13468322 74649
ONEWEB-0172             
1 48071U 21025AF  22265.64833084  .00000107  00000+0  25705-3 0  9992
2 48071  87.8962 231.1414 0001640  76.8555 283.2758 13.13472282 75511
ONEWEB-0174             
1 48072U 21025AG  22265.85885158 -.00000257  00000+0 -73776-3 0  9994
2 48072  87.9016 231.0631 0002499  97.9810 262.1602 13.13472903 74865
ONEWEB-0175             
1 48073U 21025AH  22265.81019822  .00000296  00000+0  77698-3 0  9996
2 48073  87.9054 231.0100 0001777  63.8378 296.2934 13.13468004 74513
ONEWEB-0177             
1 48074U 21025AJ  22265.82289002  .00000406  00000+0  10756-2 0  9991
2 48074  87.8933 231.1105 0001492  99.3570 260.7727 13.13467068 74703
ONEWEB-0178             
1 48075U 21025AK  22265.15528416 -.00000178  00000+0 -52221-3 0  9995
2 48075  87.8979 231.1890 0001750  88.7835 271.3494 13.13473168 74660
ONEWEB-0108             
1 48076U 21025AL  22265.64937118  .00000105  00000+0  25309-3 0  9998
2 48076  87.9021 231.0802 0002194  82.8789 277.2589 13.13472337 74665
ONEWEB-0169             
1 48077U 21025AM  22265.83134764  .00000135  00000+0  33452-3 0  9997
2 48077  87.8946 231.1241 0002139  89.2391 270.8983 13.13471159 74576
ONEWEB-0176             
1 48210U 21031A   22265.83255962 -.00000021  00000+0 -90166-4 0  9999
2 48210  87.9111 200.7720 0001798  78.4678 281.6654 13.14501544 70497
ONEWEB-0184             
1 48211U 21031B   22265.12211328  .00000247  00000+0  63290-3 0  9995
2 48211  87.9127 200.8234 0001703  32.1714 327.9519 13.14504257 69081
ONEWEB-0179             
1 48212U 21031C   22265.85158680 -.00000444  00000+0 -12315-2 0  9999
2 48212  87.9129 200.6804 0001625  85.3837 274.7478 13.14502244 69227
ONEWEB-0180             
1 48213U 21031D   22265.80930016  .00000289  00000+0  74442-3 0  9991
2 48213  87.9127 200.6826 0002005  84.4611 275.6748 13.14505743 69107
ONEWEB-0218             
1 48214U 21031E   22265.83045393  .00000031  00000+0  49470-4 0  9999
2 48214  87.9218 200.6509 0001062  29.9409 330.1782 13.14503988 69269
ONEWEB-0209             
1 48215U 21031F   22265.51541925  .00000411  00000+0  10738-2 0  9992
2 48215  87.9129 200.7805 0001798  80.1673 279.9660 13.14502483 69229
ONEWEB-0198             
1 48216U 21031G   22265.80509676 -.00000316  00000+0 -88760-3 0  9999
2 48216  87.9141 200.7335 0000995  56.7037 303.4188 13.14489672 69359
ONEWEB-0189             
1 48217U 21031H   22265.51328871  .00000255  00000+0  65405-3 0  9995
2 48217  87.9222 200.7407 0001181  75.7253 284.4008 13.14505370 69071
ONEWEB-0196             
1 48218U 21031J   22265.79659784  .00000024  00000+0  29257-4 0  9996
2 48218  87.9111 200.7078 0001943  75.0414 285.0931 13.14504533 69107
ONEWEB-0183             
1 48219U 21031K   22265.54078209 -.00000086  00000+0 -26569-3 0  9999
2 48219  87.9128 200.7784 0001899  81.5062 278.6283 13.14501309 69174
ONEWEB-0185             
1 48220U 21031L   22265.79765624  .00000096  00000+0  22457-3 0  9993
2 48220  87.9127 200.7057 0001830  80.4580 279.6756 13.14503598 69130
ONEWEB-0187             
1 48221U 21031M   22265.84939837 -.00000204  00000+0 -58564-3 0  9990
2 48221  87.9129 200.7184 0001788  82.7478 277.3855 13.14505720 69153
ONEWEB-0192             
1 48222U 21031N   22265.82199117  .00000207  00000+0  52353-3 0  9999
2 48222  87.9126 200.6710 0001701  70.9588 289.1726 13.14505240 69077
ONEWEB-0219             
1 48223U 21031P   22265.80294384  .00000192  00000+0  48257-3 0  9991
2 48223  87.9221 200.6745 0001874  81.7837 278.3505 13.14506619 69278
ONEWEB-0202             
1 48224U 21031Q   22265.55346605 -.00000096  00000+0 -29264-3 0  9990
2 48224  87.9132 200.7804 0000767  44.7985 315.3206 13.14501034 69210
ONEWEB-0204             
1 48225U 21031R   22265.84210371 -.00000087  00000+0 -26789-3 0  9992
2 48225  87.9130 200.7499 0002591  75.3779 284.7638 13.14499946 69156
ONEWEB-0205             
1 48226U 21031S   22265.79236851 -.00000060  00000+0 -19736-3 0  9993
2 48226  87.9136 200.7111 0001567  78.8808 281.2498 13.14505344 69164
ONEWEB-0206             
1 48227U 21031T   22265.53653376 -.00000106  00000+0 -32068-3 0  9995
2 48227  87.9211 200.7119 0001930  86.4316 273.7034 13.14505490 69074
ONEWEB-0182             
1 48228U 21031U   22265.53020526  .00000032  00000+0  51577-4 0  9994
2 48228  87.9128 200.8231 0001755  84.9091 275.2239 13.14505937 69289
ONEWEB-0186             
1 48229U 21031V   22265.84736567 -.00000245  00000+0 -69489-3 0  9996
2 48229  87.9124 200.6720 0001669  79.8934 280.2384 13.14505135 69287
ONEWEB-0181             
1 48230U 21031W   22265.82409640 -.00000661  00000+0 -18166-2 0  9992
2 48230  87.9130 200.7446 0001864  77.3180 282.8158 13.14500204 69138
ONEWEB-0188             
1 48231U 21031X   22265.78815212 -.00000094  00000+0 -28719-3 0  9990
2 48231  87.9127 200.7539 0001763  82.2149 277.9181 13.14505187 69020
ONEWEB-0220             
1 48232U 21031Y   22265.52173086  .00000058  00000+0  12204-3 0  9999
2 48232  87.9205 200.7267 0001645  89.5107 270.6211 13.14505191 69253
ONEWEB-0165             
1 48233U 21031Z   22265.85581304 -.00000493  00000+0 -13645-2 0  9996
2 48233  87.9125 200.7217 0001599  82.1931 277.9380 13.14503337 69259
ONEWEB-0199             
1 48234U 21031AA  22265.83890728 -.00000080  00000+0 -25055-3 0  9999
2 48234  87.9128 200.7023 0001747  79.7849 280.3478 13.14504831 69158
ONEWEB-0203             
1 48235U 21031AB  22265.52385417  .00000037  00000+0  66325-4 0  9996
2 48235  87.9123 200.7591 0001974  60.7009 299.4318 13.14504297 69121
ONEWEB-0197             
1 48236U 21031AC  22265.81564514  .00000296  00000+0  76432-3 0  9992
2 48236  87.9124 200.7115 0001826  77.4601 282.6733 13.14500680 69075
ONEWEB-0194             
1 48237U 21031AD  22265.86003195 -.00000449  00000+0 -12457-2 0  9999
2 48237  87.9128 200.6926 0002124  64.4994 295.6355 13.14501315 69252
ONEWEB-0193             
1 48238U 21031AE  22265.80082959  .00000145  00000+0  35675-3 0  9998
2 48238  87.9129 200.7154 0001728  68.9606 291.1709 13.14505457 69194
ONEWEB-0191             
1 48239U 21031AF  22265.81140661  .00000207  00000+0  52301-3 0  9999
2 48239  87.9124 200.6954 0001970  71.0070 289.1273 13.14505507 69050
ONEWEB-0195             
1 48240U 21031AG  22265.78920168 -.00000117  00000+0 -34905-3 0  9997
2 48240  87.9149 200.6923 0001513  72.3567 287.7728 13.14507212 69035
